[{"OBJECT_NAME":"IRIDIUM 173","OBJECT_ID":"2019-002D","EPOCH":"2026-03-09T23:25:14.922624","MEAN_MOTION":14.34217176,"ECCENTRICITY":0.00020878,"INCLINATION":86.3979,"RA_OF_ASC_NODE":35.0129,"ARG_OF_PERICENTER":83.8645,"MEAN_ANOMALY":276.2788,"EPHEMERIS_TYPE":0,"CLASSIFICATION_TYPE":"U","NORAD_CAT_ID":43925,"ELEMENT_SET_NO":999,"REV_AT_EPOCH":37473,"BSTAR":2.1469625e-5,"MEAN_MOTION_DOT":8.0e-7,"MEAN_MOTION_DDOT":0},{"OBJECT_NAME":"NOAA 16 DEB","OBJECT_ID":"2000-055TN","EPOCH":"2026-03-07T15:44:05.031456","MEAN_MOTION":14.31538739,"ECCENTRICITY":0.00117264,"INCLINATION":98.6697,"RA_OF_ASC_NODE":145.6232,"ARG_OF_PERICENTER":109.6695,"MEAN_ANOMALY":250.5755,"EPHEMERIS_TYPE":0,"CLASSIFICATION_TYPE":"U","NORAD_CAT_ID":42418,"ELEMENT_SET_NO":999,"REV_AT_EPOCH":51715,"BSTAR":0.0021516862,"MEAN_MOTION_DOT":5.685e-5,"MEAN_MOTION_DDOT":0}]
